{
  "type": "FeatureCollection",
  "features": [
    {
      "type": "Feature",
      "properties": {
        "norad_id": 66947,
        "name": "STARLINK-36089",
        "group": "last-30-days",
        "lat": 42.45407749333294,
        "lon": 35.37526579743412,
        "alt_km": 367.93456051165595,
        "timestamp": "2025-12-24T09:46:29.717310+00:00",
        "meta_object_name": "STARLINK-36089",
        "meta_object_id": "2025-286Y",
        "meta_epoch": "2025-12-24T04:00:01.998720",
        "meta_mean_motion": 15.65706117,
        "meta_eccentricity": 0.0001541,
        "meta_inclination": 53.1593,
        "meta_ra_of_asc_node": 353.2463,
        "meta_arg_of_pericenter": 85.1035,
        "meta_mean_anomaly": 56.0335,
        "meta_ephemeris_type": 0,
        "meta_classification_type": "U",
        "meta_norad_cat_id": 66947,
        "meta_element_set_no": 999,
        "meta_rev_at_epoch": 382,
        "meta_bstar": -0.022615,
        "meta_mean_motion_dot": -0.02042828,
        "meta_mean_motion_ddot": 0,
        "tle_line1": "1 66947U 25286Y   25358.16668980 -.02042828  00000+0 -22615-1 0  9996",
        "tle_line2": "2 66947  53.1593 353.2463 0001541  85.1035  56.0335 15.65706117  3823"
      },
      "geometry": {
        "type": "Point",
        "coordinates": [
          35.37526579743412,
          42.45407749333294
        ]
      }
    },
    {
      "type": "Feature",
      "properties": {
        "norad_id": 66948,
        "name": "STARLINK-36116",
        "group": "last-30-days",
        "lat": 41.320788833306594,
        "lon": 33.3068211363316,
        "alt_km": 368.14490933430443,
        "timestamp": "2025-12-24T09:46:29.717320+00:00",
        "meta_object_name": "STARLINK-36116",
        "meta_object_id": "2025-286Z",
        "meta_epoch": "2025-12-24T04:00:01.998720",
        "meta_mean_motion": 15.65705654,
        "meta_eccentricity": 0.000149,
        "meta_inclination": 53.1596,
        "meta_ra_of_asc_node": 353.2506,
        "meta_arg_of_pericenter": 82.2636,
        "meta_mean_anomaly": 56.963,
        "meta_ephemeris_type": 0,
        "meta_classification_type": "U",
        "meta_norad_cat_id": 66948,
        "meta_element_set_no": 999,
        "meta_rev_at_epoch": 382,
        "meta_bstar": -0.02268,
        "meta_mean_motion_dot": -0.02047902,
        "meta_mean_motion_ddot": 0,
        "tle_line1": "1 66948U 25286Z   25358.16668980 -.02047902  00000+0 -22680-1 0  9997",
        "tle_line2": "2 66948  53.1596 353.2506 0001490  82.2636  56.9630 15.65705654  3825"
      },
      "geometry": {
        "type": "Point",
        "coordinates": [
          33.3068211363316,
          41.320788833306594
        ]
      }
    },
    {
      "type": "Feature",
      "properties": {
        "norad_id": 66949,
        "name": "STARLINK-36096",
        "group": "last-30-days",
        "lat": 43.55583304570885,
        "lon": 37.533567253953244,
        "alt_km": 367.84175273942583,
        "timestamp": "2025-12-24T09:46:29.717330+00:00",
        "meta_object_name": "STARLINK-36096",
        "meta_object_id": "2025-286AA",
        "meta_epoch": "2025-12-24T04:00:01.998720",
        "meta_mean_motion": 15.65711702,
        "meta_eccentricity": 0.0001353,
        "meta_inclination": 53.1593,
        "meta_ra_of_asc_node": 353.2428,
        "meta_arg_of_pericenter": 80.1283,
        "meta_mean_anomaly": 62.9288,
        "meta_ephemeris_type": 0,
        "meta_classification_type": "U",
        "meta_norad_cat_id": 66949,
        "meta_element_set_no": 999,
        "meta_rev_at_epoch": 382,
        "meta_bstar": -0.022776,
        "meta_mean_motion_dot": -0.02055796,
        "meta_mean_motion_ddot": 0,
        "tle_line1": "1 66949U 25286AA  25358.16668980 -.02055796  00000+0 -22776-1 0  9994",
        "tle_line2": "2 66949  53.1593 353.2428 0001353  80.1283  62.9288 15.65711702  3826"
      },
      "geometry": {
        "type": "Point",
        "coordinates": [
          37.533567253953244,
          43.55583304570885
        ]
      }
    },
    {
      "type": "Feature",
      "properties": {
        "norad_id": 66950,
        "name": "STARLINK-36111",
        "group": "last-30-days",
        "lat": 45.61968551360538,
        "lon": 42.06458989097578,
        "alt_km": 367.41016440272233,
        "timestamp": "2025-12-24T09:46:29.717343+00:00",
        "meta_object_name": "STARLINK-36111",
        "meta_object_id": "2025-286AB",
        "meta_epoch": "2025-12-24T04:00:01.998720",
        "meta_mean_motion": 15.65698069,
        "meta_eccentricity": 0.0001549,
        "meta_inclination": 53.1595,
        "meta_ra_of_asc_node": 353.2347,
        "meta_arg_of_pericenter": 84.5688,
        "meta_mean_anomaly": 62.3243,
        "meta_ephemeris_type": 0,
        "meta_classification_type": "U",
        "meta_norad_cat_id": 66950,
        "meta_element_set_no": 999,
        "meta_rev_at_epoch": 382,
        "meta_bstar": -0.022527,
        "meta_mean_motion_dot": -0.02035247,
        "meta_mean_motion_ddot": 0,
        "tle_line1": "1 66950U 25286AB  25358.16668980 -.02035247  00000+0 -22527-1 0  9999",
        "tle_line2": "2 66950  53.1595 353.2347 0001549  84.5688  62.3243 15.65698069  3829"
      },
      "geometry": {
        "type": "Point",
        "coordinates": [
          42.06458989097578,
          45.61968551360538
        ]
      }
    },
    {
      "type": "Feature",
      "properties": {
        "norad_id": 66951,
        "name": "STARLINK-35999",
        "group": "last-30-days",
        "lat": 46.58507213777399,
        "lon": 44.463517208956354,
        "alt_km": 367.27698425302697,
        "timestamp": "2025-12-24T09:46:29.717358+00:00",
        "meta_object_name": "STARLINK-35999",
        "meta_object_id": "2025-286AC",
        "meta_epoch": "2025-12-24T04:00:01.998720",
        "meta_mean_motion": 15.6571042,
        "meta_eccentricity": 0.0001525,
        "meta_inclination": 53.1597,
        "meta_ra_of_asc_node": 353.2306,
        "meta_arg_of_pericenter": 85.711,
        "meta_mean_anomaly": 63.099,
        "meta_ephemeris_type": 0,
        "meta_classification_type": "U",
        "meta_norad_cat_id": 66951,
        "meta_element_set_no": 999,
        "meta_rev_at_epoch": 382,
        "meta_bstar": -0.022771,
        "meta_mean_motion_dot": -0.02055417,
        "meta_mean_motion_ddot": 0,
        "tle_line1": "1 66951U 25286AC  25358.16668980 -.02055417  00000+0 -22771-1 0  9992",
        "tle_line2": "2 66951  53.1597 353.2306 0001525  85.7110  63.0990 15.65710420  3827"
      },
      "geometry": {
        "type": "Point",
        "coordinates": [
          44.463517208956354,
          46.58507213777399
        ]
      }
    },
    {
      "type": "Feature",
      "properties": {
        "norad_id": 66952,
        "name": "STARLINK-36122",
        "group": "last-30-days",
        "lat": 44.608623869343376,
        "lon": 39.75515513793811,
        "alt_km": 367.6664051650587,
        "timestamp": "2025-12-24T09:46:29.717371+00:00",
        "meta_object_name": "STARLINK-36122",
        "meta_object_id": "2025-286AD",
        "meta_epoch": "2025-12-24T04:00:01.998720",
        "meta_mean_motion": 15.65705412,
        "meta_eccentricity": 0.0001449,
        "meta_inclination": 53.1595,
        "meta_ra_of_asc_node": 353.2389,
        "meta_arg_of_pericenter": 89.4645,
        "meta_mean_anomaly": 55.508,
        "meta_ephemeris_type": 0,
        "meta_classification_type": "U",
        "meta_norad_cat_id": 66952,
        "meta_element_set_no": 999,
        "meta_rev_at_epoch": 382,
        "meta_bstar": -0.022617,
        "meta_mean_motion_dot": -0.02042813,
        "meta_mean_motion_ddot": 0,
        "tle_line1": "1 66952U 25286AD  25358.16668980 -.02042813  00000+0 -22617-1 0  9998",
        "tle_line2": "2 66952  53.1595 353.2389 0001449  89.4645  55.5080 15.65705412  3827"
      },
      "geometry": {
        "type": "Point",
        "coordinates": [
          39.75515513793811,
          44.608623869343376
        ]
      }
    },
    {
      "type": "Feature",
      "properties": {
        "norad_id": 66953,
        "name": "HULIANWANG DIGUI-114",
        "group": "last-30-days",
        "lat": -11.76060172413043,
        "lon": -18.817217682410416,
        "alt_km": 1024.8632331018007,
        "timestamp": "2025-12-24T09:46:29.717381+00:00",
        "meta_object_name": "HULIANWANG DIGUI-114",
        "meta_object_id": "2025-287A",
        "meta_epoch": "2025-12-20T09:09:14.655168",
        "meta_mean_motion": 13.66161866,
        "meta_eccentricity": 0.00096738,
        "meta_inclination": 86.496,
        "meta_ra_of_asc_node": 343.3747,
        "meta_arg_of_pericenter": 185.0352,
        "meta_mean_anomaly": 175.071,
        "meta_ephemeris_type": 0,
        "meta_classification_type": "U",
        "meta_norad_cat_id": 66953,
        "meta_element_set_no": 999,
        "meta_rev_at_epoch": 157,
        "meta_bstar": 3.033618e-06,
        "meta_mean_motion_dot": 1.9e-07,
        "meta_mean_motion_ddot": 0,
        "tle_line1": "1 66953U 25287A   25354.38141962  .00000019  00000+0  30336-5 0  9995",
        "tle_line2": "2 66953  86.4960 343.3747 0009673 185.0352 175.0710 13.66161866  1572"
      },
      "geometry": {
        "type": "Point",
        "coordinates": [
          -18.817217682410416,
          -11.76060172413043
        ]
      }
    }
  ]
}